[{"OBJECT_NAME":"STARLINK-34752","OBJECT_ID":"2025-240H","EPOCH":"2026-03-09T10:13:08.148864","MEAN_MOTION":15.30200647,"ECCENTRICITY":0.00011088,"INCLINATION":53.1597,"RA_OF_ASC_NODE":64.3528,"ARG_OF_PERICENTER":102.6547,"MEAN_ANOMALY":257.4578,"EPHEMERIS_TYPE":0,"CLASSIFICATION_TYPE":"U","NORAD_CAT_ID":66153,"ELEMENT_SET_NO":999,"REV_AT_EPOCH":2194,"BSTAR":0.00055958175,"MEAN_MOTION_DOT":0.00016251,"MEAN_MOTION_DDOT":0},{"OBJECT_NAME":"CZ-3A R\/B","OBJECT_ID":"2012-002B","EPOCH":"2026-03-06T19:16:06.286656","MEAN_MOTION":2.32860331,"ECCENTRICITY":0.71977784,"INCLINATION":24.8928,"RA_OF_ASC_NODE":341.6434,"ARG_OF_PERICENTER":266.1165,"MEAN_ANOMALY":16.7605,"EPHEMERIS_TYPE":0,"CLASSIFICATION_TYPE":"U","NORAD_CAT_ID":38050,"ELEMENT_SET_NO":999,"REV_AT_EPOCH":11865,"BSTAR":0.00041161902,"MEAN_MOTION_DOT":1.57e-6,"MEAN_MOTION_DDOT":0}]
